{
  "type": "FeatureCollection",
  "features": [
    {
      "type": "Feature",
      "properties": {
        "norad_id": 57400,
        "name": "TIANMU-1 08",
        "group": "weather",
        "lat": 28.25611711869899,
        "lon": 24.464382167619952,
        "alt_km": 479.93815706814985,
        "timestamp": "2025-12-04T13:52:00.091818+00:00",
        "meta_object_name": "TIANMU-1 08",
        "meta_object_id": "2023-101B",
        "meta_epoch": "2025-12-04T07:27:17.983584",
        "meta_mean_motion": 15.27866983,
        "meta_eccentricity": 0.00074732,
        "meta_inclination": 97.288,
        "meta_ra_of_asc_node": 28.1473,
        "meta_arg_of_pericenter": 107.5431,
        "meta_mean_anomaly": 252.6625,
        "meta_ephemeris_type": 0,
        "meta_classification_type": "U",
        "meta_norad_cat_id": 57400,
        "meta_element_set_no": 999,
        "meta_rev_at_epoch": 13186,
        "meta_bstar": 0.00059259914,
        "meta_mean_motion_dot": 0.0001608,
        "meta_mean_motion_ddot": 0,
        "tle_line1": "1 57400U 23101B   25338.31062481  .00016080  00000+0  59260-3 0  9998",
        "tle_line2": "2 57400  97.2880  28.1473 0007473 107.5431 252.6625 15.27866983131861"
      },
      "geometry": {
        "type": "Point",
        "coordinates": [
          24.464382167619952,
          28.25611711869899
        ]
      }
    },
    {
      "type": "Feature",
      "properties": {
        "norad_id": 57401,
        "name": "TIANMU-1 09",
        "group": "weather",
        "lat": 77.18151490376164,
        "lon": -117.8704111047566,
        "alt_km": 470.2388035996828,
        "timestamp": "2025-12-04T13:52:00.091828+00:00",
        "meta_object_name": "TIANMU-1 09",
        "meta_object_id": "2023-101C",
        "meta_epoch": "2025-12-04T08:42:47.140704",
        "meta_mean_motion": 15.27892035,
        "meta_eccentricity": 0.00067578,
        "meta_inclination": 97.2837,
        "meta_ra_of_asc_node": 27.7165,
        "meta_arg_of_pericenter": 106.6798,
        "meta_mean_anomaly": 253.5184,
        "meta_ephemeris_type": 0,
        "meta_classification_type": "U",
        "meta_norad_cat_id": 57401,
        "meta_element_set_no": 999,
        "meta_rev_at_epoch": 13187,
        "meta_bstar": 0.0006412872,
        "meta_mean_motion_dot": 0.00017421,
        "meta_mean_motion_ddot": 0,
        "tle_line1": "1 57401U 23101C   25338.36304561  .00017421  00000+0  64129-3 0  9992",
        "tle_line2": "2 57401  97.2837  27.7165 0006757 106.6798 253.5184 15.27892035131875"
      },
      "geometry": {
        "type": "Point",
        "coordinates": [
          -117.8704111047566,
          77.18151490376164
        ]
      }
    },
    {
      "type": "Feature",
      "properties": {
        "norad_id": 57402,
        "name": "TIANMU-1 10",
        "group": "weather",
        "lat": -82.19707023538611,
        "lon": 97.90098175487556,
        "alt_km": 495.17510191383735,
        "timestamp": "2025-12-04T13:52:00.091838+00:00",
        "meta_object_name": "TIANMU-1 10",
        "meta_object_id": "2023-101D",
        "meta_epoch": "2025-12-04T07:57:40.747968",
        "meta_mean_motion": 15.27881819,
        "meta_eccentricity": 0.00085345,
        "meta_inclination": 97.2918,
        "meta_ra_of_asc_node": 28.5267,
        "meta_arg_of_pericenter": 107.7057,
        "meta_mean_anomaly": 252.5116,
        "meta_ephemeris_type": 0,
        "meta_classification_type": "U",
        "meta_norad_cat_id": 57402,
        "meta_element_set_no": 999,
        "meta_rev_at_epoch": 13186,
        "meta_bstar": 0.00060860608,
        "meta_mean_motion_dot": 0.00016529,
        "meta_mean_motion_ddot": 0,
        "tle_line1": "1 57402U 23101D   25338.33172162  .00016529  00000+0  60861-3 0  9997",
        "tle_line2": "2 57402  97.2918  28.5267 0008534 107.7057 252.5116 15.27881819131864"
      },
      "geometry": {
        "type": "Point",
        "coordinates": [
          97.90098175487556,
          -82.19707023538611
        ]
      }
    },
    {
      "type": "Feature",
      "properties": {
        "norad_id": 57490,
        "name": "FENGYUN 3F",
        "group": "weather",
        "lat": 74.36540056184545,
        "lon": -99.7856365084822,
        "alt_km": 818.1272704833682,
        "timestamp": "2025-12-04T13:52:00.091848+00:00",
        "meta_object_name": "FENGYUN 3F",
        "meta_object_id": "2023-111A",
        "meta_epoch": "2025-12-04T08:18:34.945056",
        "meta_mean_motion": 14.1989025,
        "meta_eccentricity": 6.844e-05,
        "meta_inclination": 98.7094,
        "meta_ra_of_asc_node": 46.7748,
        "meta_arg_of_pericenter": 88.5372,
        "meta_mean_anomaly": 271.5883,
        "meta_ephemeris_type": 0,
        "meta_classification_type": "U",
        "meta_norad_cat_id": 57490,
        "meta_element_set_no": 999,
        "meta_rev_at_epoch": 12121,
        "meta_bstar": 0.00011911227,
        "meta_mean_motion_dot": 2.09e-06,
        "meta_mean_motion_ddot": 0,
        "tle_line1": "1 57490U 23111A   25338.34623779  .00000209  00000+0  11911-3 0  9991",
        "tle_line2": "2 57490  98.7094  46.7748 0000684  88.5372 271.5883 14.19890250121211"
      },
      "geometry": {
        "type": "Point",
        "coordinates": [
          -99.7856365084822,
          74.36540056184545
        ]
      }
    },
    {
      "type": "Feature",
      "properties": {
        "norad_id": 58584,
        "name": "ARKTIKA-M 2",
        "group": "weather",
        "lat": 63.14225796803367,
        "lon": -98.18736071696371,
        "alt_km": 38398.09416576981,
        "timestamp": "2025-12-04T13:52:00.091861+00:00",
        "meta_object_name": "ARKTIKA-M 2",
        "meta_object_id": "2023-198A",
        "meta_epoch": "2025-12-03T08:34:19.284960",
        "meta_mean_motion": 2.00605176,
        "meta_eccentricity": 0.68642509,
        "meta_inclination": 63.2223,
        "meta_ra_of_asc_node": 175.9121,
        "meta_arg_of_pericenter": 268.1397,
        "meta_mean_anomaly": 18.842,
        "meta_ephemeris_type": 0,
        "meta_classification_type": "U",
        "meta_norad_cat_id": 58584,
        "meta_element_set_no": 999,
        "meta_rev_at_epoch": 1439,
        "meta_bstar": 0,
        "meta_mean_motion_dot": 2.24e-06,
        "meta_mean_motion_ddot": 0,
        "tle_line1": "1 58584U 23198A   25337.35716765  .00000224  00000+0  00000+0 0  9999",
        "tle_line2": "2 58584  63.2223 175.9121 6864250 268.1397  18.8420  2.00605176 14390"
      },
      "geometry": {
        "type": "Point",
        "coordinates": [
          -98.18736071696371,
          63.14225796803367
        ]
      }
    },
    {
      "type": "Feature",
      "properties": {
        "norad_id": 58645,
        "name": "TIANMU-1 11",
        "group": "weather",
        "lat": -13.274051047178883,
        "lon": 176.59825506027624,
        "alt_km": 502.23490201388086,
        "timestamp": "2025-12-04T13:52:00.091872+00:00",
        "meta_object_name": "TIANMU-1 11",
        "meta_object_id": "2023-205A",
        "meta_epoch": "2025-12-04T08:17:42.344736",
        "meta_mean_motion": 15.24440474,
        "meta_eccentricity": 0.00087173,
        "meta_inclination": 97.3607,
        "meta_ra_of_asc_node": 358.1178,
        "meta_arg_of_pericenter": 343.2291,
        "meta_mean_anomaly": 16.8657,
        "meta_ephemeris_type": 0,
        "meta_classification_type": "U",
        "meta_norad_cat_id": 58645,
        "meta_element_set_no": 999,
        "meta_rev_at_epoch": 10781,
        "meta_bstar": 0.00056745496,
        "meta_mean_motion_dot": 0.00013882,
        "meta_mean_motion_ddot": 0,
        "tle_line1": "1 58645U 23205A   25338.34562899  .00013882  00000+0  56745-3 0  9998",
        "tle_line2": "2 58645  97.3607 358.1178 0008717 343.2291  16.8657 15.24440474107817"
      },
      "geometry": {
        "type": "Point",
        "coordinates": [
          176.59825506027624,
          -13.274051047178883
        ]
      }
    },
    {
      "type": "Feature",
      "properties": {
        "norad_id": 58646,
        "name": "TIANMU-1 12",
        "group": "weather",
        "lat": 48.073025055802205,
        "lon": -10.120359438537053,
        "alt_km": 487.71238052390254,
        "timestamp": "2025-12-04T13:52:00.091883+00:00",
        "meta_object_name": "TIANMU-1 12",
        "meta_object_id": "2023-205B",
        "meta_epoch": "2025-12-04T07:21:09.232704",
        "meta_mean_motion": 15.24353683,
        "meta_eccentricity": 0.00065553,
        "meta_inclination": 97.3595,
        "meta_ra_of_asc_node": 357.8875,
        "meta_arg_of_pericenter": 329.2294,
        "meta_mean_anomaly": 30.8558,
        "meta_ephemeris_type": 0,
        "meta_classification_type": "U",
        "meta_norad_cat_id": 58646,
        "meta_element_set_no": 999,
        "meta_rev_at_epoch": 10779,
        "meta_bstar": 0.00056553263,
        "meta_mean_motion_dot": 0.00013793,
        "meta_mean_motion_ddot": 0,
        "tle_line1": "1 58646U 23205B   25338.30635686  .00013793  00000+0  56553-3 0  9998",
        "tle_line2": "2 58646  97.3595 357.8875 0006555 329.2294  30.8558 15.24353683107797"
      },
      "geometry": {
        "type": "Point",
        "coordinates": [
          -10.120359438537053,
          48.073025055802205
        ]
      }
    }
  ]
}